{"epoch":1784799577,"count":18318,"objects":[{"id":"69600","name":"KUIPER-00517","type":"PAYLOAD","l1":"1 69600U 26140J   26203.45879738  .00030093  00000-0  77589-3 0  9992","l2":"2 69600  51.8762 227.8761 0011148 322.3454  37.6752 15.38875299  6668"},{"id":"69601","name":"KUIPER-00520","type":"PAYLOAD","l1":"1 69601U 26140K   26203.83335648 -.01187403  00000-0 -36892-1 0  9993","l2":"2 69601  51.8807 226.4187 0006369  24.2079  83.3200 15.35785680  5280"},{"id":"69602","name":"KUIPER-00522","type":"PAYLOAD","l1":"1 69602U 26140L   26203.78108731  .00042962  00000-0  11059-2 0  9995","l2":"2 69602  51.8780 226.2907 0012722 295.7716  64.1958 15.38731236  6719"},{"id":"69603","name":"KUIPER-00528","type":"PAYLOAD","l1":"1 69603U 26140M   26203.83335648  .00029049  00000-0  87188-3 0  9999","l2":"2 69603  51.8782 226.4619 0005594  30.8221  43.6351 15.34202820  4852"},{"id":"69604","name":"KUIPER-00532","type":"PAYLOAD","l1":"1 69604U 26140N   26203.89798353  .00024775  00000-0  69059-3 0  9990","l2":"2 69604  51.8768 226.3086 0006033  57.6657 302.4912 15.36612012  6720"},{"id":"69605","name":"KUIPER-00533","type":"PAYLOAD","l1":"1 69605U 26140P   26203.79714254  .00027545  00000-0  72442-3 0  9996","l2":"2 69605  51.8763 226.3942 0008474 352.8102   7.2762 15.38337949  6710"},{"id":"69606","name":"KUIPER-00534","type":"PAYLOAD","l1":"1 69606U 26140Q   26203.77569979 -.00455290  00000-0 -12852-1 0  9998","l2":"2 69606  51.8814 226.2628 0013035 296.6180  63.3471 15.37535679  6717"},{"id":"69607","name":"KUIPER-00537","type":"PAYLOAD","l1":"1 69607U 26140R   26203.83335648 -.00000420  00000-0 -24918-5 0  9991","l2":"2 69607  51.8829 227.1651 0009577  80.6659  33.4037 15.26879777  5058"},{"id":"69608","name":"KUIPER-00538","type":"PAYLOAD","l1":"1 69608U 26140S   26202.44577285  .00027485  00000-0  73623-3 0  9996","l2":"2 69608  51.8791 233.0928 0009043 359.3028   0.7945 15.37768741  6500"},{"id":"69609","name":"KUIPER-00540","type":"PAYLOAD","l1":"1 69609U 26140T   26203.76115220  .00029530  00000-0  80797-3 0  9993","l2":"2 69609  51.8795 226.9054 0007233  46.4343 313.7243 15.37086693  6708"},{"id":"69610","name":"KUIPER-00541","type":"PAYLOAD","l1":"1 69610U 26140U   26203.34207096  .00037187  00000-0  97301-3 0  9998","l2":"2 69610  51.8805 228.6066 0007926 346.2688  13.8082 15.38346904  6643"},{"id":"69611","name":"KUIPER-00542","type":"PAYLOAD","l1":"1 69611U 26140V   26203.79545413  .00034725  00000-0  90751-3 0  9993","l2":"2 69611  51.8760 226.3815 0007648 335.5333  24.5290 15.38418439  6711"},{"id":"69612","name":"KUIPER-00543","type":"PAYLOAD","l1":"1 69612U 26140W   26203.31120822  .00033563  00000-0  92015-3 0  9999","l2":"2 69612  51.8774 229.1220 0007957  59.2735 300.9034 15.36953526  6634"},{"id":"69613","name":"KUIPER-00544","type":"PAYLOAD","l1":"1 69613U 26140X   26203.80046926  .00193471  00000-0  49003-2 0  9999","l2":"2 69613  51.8785 226.4166 0008846 342.6993  17.3692 15.38447434  6715"},{"id":"69614","name":"KUIPER-00546","type":"PAYLOAD","l1":"1 69614U 26140Y   26203.45475816  .00036144  00000-0  94998-3 0  9992","l2":"2 69614  51.8775 227.8535 0014209 294.1151  65.8350 15.38153288  6661"},{"id":"69615","name":"KUIPER-00547","type":"PAYLOAD","l1":"1 69615U 26140Z   26203.79638226  .00022458  00000-0  60044-3 0  9994","l2":"2 69615  51.8802 226.3998 0010841 316.9829  43.0310 15.37928108  6713"}]}