{"fetched_at":"2026-07-23T07:05:17.272Z","source":"https://celestrak.org/NORAD/elements/gp.php?GROUP=kuiper&FORMAT=JSON","constellation":"kuiper","records":[{"OBJECT_NAME":"KUIPER-00517","OBJECT_ID":"2026-140J","EPOCH":"2026-07-22T11:00:40.093632","CLASSIFICATION_TYPE":"U","MEAN_MOTION":15.38875299,"ECCENTRICITY":0.00111479,"INCLINATION":51.8762,"RA_OF_ASC_NODE":227.8761,"ARG_OF_PERICENTER":322.3454,"MEAN_ANOMALY":37.6752,"EPHEMERIS_TYPE":0,"NORAD_CAT_ID":69600,"ELEMENT_SET_NO":999,"REV_AT_EPOCH":666,"BSTAR":0.00077588794,"MEAN_MOTION_DOT":0.00030093,"MEAN_MOTION_DDOT":0},{"OBJECT_NAME":"KUIPER-00520","OBJECT_ID":"2026-140K","EPOCH":"2026-07-22T20:00:01.999872","CLASSIFICATION_TYPE":"U","MEAN_MOTION":15.3578568,"ECCENTRICITY":0.0006369,"INCLINATION":51.8807,"RA_OF_ASC_NODE":226.4187,"ARG_OF_PERICENTER":24.2079,"MEAN_ANOMALY":83.32,"EPHEMERIS_TYPE":0,"NORAD_CAT_ID":69601,"ELEMENT_SET_NO":999,"REV_AT_EPOCH":528,"BSTAR":-0.036892396,"MEAN_MOTION_DOT":-0.01187403,"MEAN_MOTION_DDOT":0},{"OBJECT_NAME":"KUIPER-00522","OBJECT_ID":"2026-140L","EPOCH":"2026-07-22T18:44:45.943584","CLASSIFICATION_TYPE":"U","MEAN_MOTION":15.38731236,"ECCENTRICITY":0.00127218,"INCLINATION":51.878,"RA_OF_ASC_NODE":226.2907,"ARG_OF_PERICENTER":295.7716,"MEAN_ANOMALY":64.1958,"EPHEMERIS_TYPE":0,"NORAD_CAT_ID":69602,"ELEMENT_SET_NO":999,"REV_AT_EPOCH":671,"BSTAR":0.0011059479,"MEAN_MOTION_DOT":0.00042962,"MEAN_MOTION_DDOT":0},{"OBJECT_NAME":"KUIPER-00528","OBJECT_ID":"2026-140M","EPOCH":"2026-07-22T20:00:01.999872","CLASSIFICATION_TYPE":"U","MEAN_MOTION":15.3420282,"ECCENTRICITY":0.00055945,"INCLINATION":51.8782,"RA_OF_ASC_NODE":226.4619,"ARG_OF_PERICENTER":30.8221,"MEAN_ANOMALY":43.6351,"EPHEMERIS_TYPE":0,"NORAD_CAT_ID":69603,"ELEMENT_SET_NO":999,"REV_AT_EPOCH":485,"BSTAR":0.00087188424,"MEAN_MOTION_DOT":0.00029049,"MEAN_MOTION_DDOT":0},{"OBJECT_NAME":"KUIPER-00532","OBJECT_ID":"2026-140N","EPOCH":"2026-07-22T21:33:05.776992","CLASSIFICATION_TYPE":"U","MEAN_MOTION":15.36612012,"ECCENTRICITY":0.00060326,"INCLINATION":51.8768,"RA_OF_ASC_NODE":226.3086,"ARG_OF_PERICENTER":57.6657,"MEAN_ANOMALY":302.4912,"EPHEMERIS_TYPE":0,"NORAD_CAT_ID":69604,"ELEMENT_SET_NO":999,"REV_AT_EPOCH":672,"BSTAR":0.00069058933,"MEAN_MOTION_DOT":0.00024775,"MEAN_MOTION_DDOT":0},{"OBJECT_NAME":"KUIPER-00533","OBJECT_ID":"2026-140P","EPOCH":"2026-07-22T19:07:53.115456","CLASSIFICATION_TYPE":"U","MEAN_MOTION":15.38337949,"ECCENTRICITY":0.00084739,"INCLINATION":51.8763,"RA_OF_ASC_NODE":226.3942,"ARG_OF_PERICENTER":352.8102,"MEAN_ANOMALY":7.2762,"EPHEMERIS_TYPE":0,"NORAD_CAT_ID":69605,"ELEMENT_SET_NO":999,"REV_AT_EPOCH":671,"BSTAR":0.00072442192,"MEAN_MOTION_DOT":0.00027545,"MEAN_MOTION_DDOT":0},{"OBJECT_NAME":"KUIPER-00534","OBJECT_ID":"2026-140Q","EPOCH":"2026-07-22T18:37:00.461856","CLASSIFICATION_TYPE":"U","MEAN_MOTION":15.37535679,"ECCENTRICITY":0.00130347,"INCLINATION":51.8814,"RA_OF_ASC_NODE":226.2628,"ARG_OF_PERICENTER":296.618,"MEAN_ANOMALY":63.3471,"EPHEMERIS_TYPE":0,"NORAD_CAT_ID":69606,"ELEMENT_SET_NO":999,"REV_AT_EPOCH":671,"BSTAR":-0.012852233,"MEAN_MOTION_DOT":-0.0045529,"MEAN_MOTION_DDOT":0},{"OBJECT_NAME":"KUIPER-00537","OBJECT_ID":"2026-140R","EPOCH":"2026-07-22T20:00:01.999872","CLASSIFICATION_TYPE":"U","MEAN_MOTION":15.26879777,"ECCENTRICITY":0.00095772,"INCLINATION":51.8829,"RA_OF_ASC_NODE":227.1651,"ARG_OF_PERICENTER":80.6659,"MEAN_ANOMALY":33.4037,"EPHEMERIS_TYPE":0,"NORAD_CAT_ID":69607,"ELEMENT_SET_NO":999,"REV_AT_EPOCH":505,"BSTAR":-0.000002491814,"MEAN_MOTION_DOT":-0.0000042,"MEAN_MOTION_DDOT":0},{"OBJECT_NAME":"KUIPER-00538","OBJECT_ID":"2026-140S","EPOCH":"2026-07-21T10:41:54.774240","CLASSIFICATION_TYPE":"U","MEAN_MOTION":15.37768741,"ECCENTRICITY":0.0009043,"INCLINATION":51.8791,"RA_OF_ASC_NODE":233.0928,"ARG_OF_PERICENTER":359.3028,"MEAN_ANOMALY":0.7945,"EPHEMERIS_TYPE":0,"NORAD_CAT_ID":69608,"ELEMENT_SET_NO":999,"REV_AT_EPOCH":650,"BSTAR":0.00073622838,"MEAN_MOTION_DOT":0.00027485,"MEAN_MOTION_DDOT":0},{"OBJECT_NAME":"KUIPER-00540","OBJECT_ID":"2026-140T","EPOCH":"2026-07-22T18:16:03.550080","CLASSIFICATION_TYPE":"U","MEAN_MOTION":15.37086693,"ECCENTRICITY":0.00072327,"INCLINATION":51.8795,"RA_OF_ASC_NODE":226.9054,"ARG_OF_PERICENTER":46.4343,"MEAN_ANOMALY":313.7243,"EPHEMERIS_TYPE":0,"NORAD_CAT_ID":69609,"ELEMENT_SET_NO":999,"REV_AT_EPOCH":670,"BSTAR":0.00080796786,"MEAN_MOTION_DOT":0.0002953,"MEAN_MOTION_DDOT":0},{"OBJECT_NAME":"KUIPER-00541","OBJECT_ID":"2026-140U","EPOCH":"2026-07-22T08:12:34.930944","CLASSIFICATION_TYPE":"U","MEAN_MOTION":15.38346904,"ECCENTRICITY":0.00079264,"INCLINATION":51.8805,"RA_OF_ASC_NODE":228.6066,"ARG_OF_PERICENTER":346.2688,"MEAN_ANOMALY":13.8082,"EPHEMERIS_TYPE":0,"NORAD_CAT_ID":69610,"ELEMENT_SET_NO":999,"REV_AT_EPOCH":664,"BSTAR":0.00097301473,"MEAN_MOTION_DOT":0.00037187,"MEAN_MOTION_DDOT":0},{"OBJECT_NAME":"KUIPER-00542","OBJECT_ID":"2026-140V","EPOCH":"2026-07-22T19:05:27.236832","CLASSIFICATION_TYPE":"U","MEAN_MOTION":15.38418439,"ECCENTRICITY":0.00076481,"INCLINATION":51.876,"RA_OF_ASC_NODE":226.3815,"ARG_OF_PERICENTER":335.5333,"MEAN_ANOMALY":24.529,"EPHEMERIS_TYPE":0,"NORAD_CAT_ID":69611,"ELEMENT_SET_NO":999,"REV_AT_EPOCH":671,"BSTAR":0.00090750692,"MEAN_MOTION_DOT":0.00034725,"MEAN_MOTION_DDOT":0},{"OBJECT_NAME":"KUIPER-00543","OBJECT_ID":"2026-140W","EPOCH":"2026-07-22T07:28:08.390208","CLASSIFICATION_TYPE":"U","MEAN_MOTION":15.36953526,"ECCENTRICITY":0.00079569,"INCLINATION":51.8774,"RA_OF_ASC_NODE":229.122,"ARG_OF_PERICENTER":59.2735,"MEAN_ANOMALY":300.9034,"EPHEMERIS_TYPE":0,"NORAD_CAT_ID":69612,"ELEMENT_SET_NO":999,"REV_AT_EPOCH":663,"BSTAR":0.0009201459,"MEAN_MOTION_DOT":0.00033563,"MEAN_MOTION_DDOT":0},{"OBJECT_NAME":"KUIPER-00544","OBJECT_ID":"2026-140X","EPOCH":"2026-07-22T19:12:40.544064","CLASSIFICATION_TYPE":"U","MEAN_MOTION":15.38447434,"ECCENTRICITY":0.00088461,"INCLINATION":51.8785,"RA_OF_ASC_NODE":226.4166,"ARG_OF_PERICENTER":342.6993,"MEAN_ANOMALY":17.3692,"EPHEMERIS_TYPE":0,"NORAD_CAT_ID":69613,"ELEMENT_SET_NO":999,"REV_AT_EPOCH":671,"BSTAR":0.0049002765,"MEAN_MOTION_DOT":0.00193471,"MEAN_MOTION_DDOT":0},{"OBJECT_NAME":"KUIPER-00546","OBJECT_ID":"2026-140Y","EPOCH":"2026-07-22T10:54:51.105024","CLASSIFICATION_TYPE":"U","MEAN_MOTION":15.38153288,"ECCENTRICITY":0.00142088,"INCLINATION":51.8775,"RA_OF_ASC_NODE":227.8535,"ARG_OF_PERICENTER":294.1151,"MEAN_ANOMALY":65.835,"EPHEMERIS_TYPE":0,"NORAD_CAT_ID":69614,"ELEMENT_SET_NO":999,"REV_AT_EPOCH":666,"BSTAR":0.00094998344,"MEAN_MOTION_DOT":0.00036144,"MEAN_MOTION_DDOT":0},{"OBJECT_NAME":"KUIPER-00547","OBJECT_ID":"2026-140Z","EPOCH":"2026-07-22T19:06:47.427264","CLASSIFICATION_TYPE":"U","MEAN_MOTION":15.37928108,"ECCENTRICITY":0.00108409,"INCLINATION":51.8802,"RA_OF_ASC_NODE":226.3998,"ARG_OF_PERICENTER":316.9829,"MEAN_ANOMALY":43.031,"EPHEMERIS_TYPE":0,"NORAD_CAT_ID":69615,"ELEMENT_SET_NO":999,"REV_AT_EPOCH":671,"BSTAR":0.00060043977,"MEAN_MOTION_DOT":0.00022458,"MEAN_MOTION_DDOT":0}]}
